{"type": "FeatureCollection", "features": [ {"type": "Feature", "properties": {"norad_id": 62339, "name": "GPS BIII-7  (PRN 01)", "group": "gps-ops", "lat": 19.417755227518413, "lon": 147.1541662255837, "alt_km": 20212.19638768257, "timestamp": "2025-12-18T13:51:49.942565+00:00", "meta": {"OBJECT_NAME": "GPS BIII-7  (PRN 01)", "OBJECT_ID": "2024-242A", "EPOCH": "2025-12-18T02:37:38.581248", "MEAN_MOTION": 2.00568178, "ECCENTRICITY": 0.00125014, "INCLINATION": 54.9221, "RA_OF_ASC_NODE": 341.5227, "ARG_OF_PERICENTER": 345.673, "MEAN_ANOMALY": 192.2282, "EPHEMERIS_TYPE": 0, "CLASSIFICATION_TYPE": "U", "NORAD_CAT_ID": 62339, "ELEMENT_SET_NO": 999, "REV_AT_EPOCH": 762, "BSTAR": 0, "MEAN_MOTION_DOT": -8.6e-07, "MEAN_MOTION_DDOT": 0}, "tle": {"line1": "1 62339U 24242A   25352.10947432 -.00000086  00000+0  00000+0 0  9997", "line2": "2 62339  54.9221 341.5227 0012501 345.6730 192.2282  2.00568178  7627"}}, "geometry": {"type": "Point", "coordinates": [147.1541662255837, 19.417755227518413]}}, {"type": "Feature", "properties": {"norad_id": 64202, "name": "GPS BIII-8  (PRN 21)", "group": "gps-ops", "lat": -12.075944896224376, "lon": 29.847196184458866, "alt_km": 20172.623069889665, "timestamp": "2025-12-18T13:51:49.942577+00:00", "meta": {"OBJECT_NAME": "GPS BIII-8  (PRN 21)", "OBJECT_ID": "2025-116A", "EPOCH": "2025-12-14T02:46:13.653120", "MEAN_MOTION": 2.00558299, "ECCENTRICITY": 0.00056153, "INCLINATION": 55.1067, "RA_OF_ASC_NODE": 38.5851, "ARG_OF_PERICENTER": 308.147, "MEAN_ANOMALY": 55.2369, "EPHEMERIS_TYPE": 0, "CLASSIFICATION_TYPE": "U", "NORAD_CAT_ID": 64202, "ELEMENT_SET_NO": 999, "REV_AT_EPOCH": 416, "BSTAR": 0, "MEAN_MOTION_DOT": -9.6e-07, "MEAN_MOTION_DDOT": 0}, "tle": {"line1": "1 64202U 25116A   25348.11543580 -.00000096  00000+0  00000+0 0  9992", "line2": "2 64202  55.1067  38.5851 0005615 308.1470  55.2369  2.00558299  4161"}}, "geometry": {"type": "Point", "coordinates": [29.847196184458866, -12.075944896224376]}}]}